[{"OBJECT_NAME":"JILIN-1 GAOFEN 03D43","OBJECT_ID":"2022-098E","EPOCH":"2026-03-09T22:44:15.785952","MEAN_MOTION":15.57011563,"ECCENTRICITY":0.00021659,"INCLINATION":97.5443,"RA_OF_ASC_NODE":192.8874,"ARG_OF_PERICENTER":13.4231,"MEAN_ANOMALY":346.7081,"EPHEMERIS_TYPE":0,"CLASSIFICATION_TYPE":"U","NORAD_CAT_ID":53448,"ELEMENT_SET_NO":999,"REV_AT_EPOCH":19919,"BSTAR":0.00090276646,"MEAN_MOTION_DOT":0.00065504,"MEAN_MOTION_DDOT":0},{"OBJECT_NAME":"SL-8 R\/B","OBJECT_ID":"1994-061B","EPOCH":"2026-03-09T22:11:39.346944","MEAN_MOTION":14.28263907,"ECCENTRICITY":0.05977746,"INCLINATION":82.9619,"RA_OF_ASC_NODE":21.337,"ARG_OF_PERICENTER":318.8014,"MEAN_ANOMALY":36.9463,"EPHEMERIS_TYPE":0,"CLASSIFICATION_TYPE":"U","NORAD_CAT_ID":23279,"ELEMENT_SET_NO":999,"REV_AT_EPOCH":57143,"BSTAR":0.00083232798,"MEAN_MOTION_DOT":0.00016203,"MEAN_MOTION_DDOT":0}]
